STARLINK-2673           
1 48649U 21044M   26068.50483444  .00009476  00000+0  33199-3 0  9999
2 48649  53.1601 114.7025 0001295  87.2250 272.8899 15.30166289263793
2025-313BE              
1 67482U 25313BE  26068.69721505  .00077178  00000+0  26504-2 0  9996
2 67482  97.3989 145.3568 0007208 335.3714  24.7181 15.29801687  7972
